STARLINK-1355_new
1 15563C 20025AJ  21326.16041329  .00006017  00000-0  40307-3 0  3267
2 15563  53.0545 288.0290 0001994  64.9789 242.6763 15.06398812    16
STARLINK-1355_old
1 25563C 20025AJ  21325.11824330  .00001819  00000-0  12188-3 0  3252
2 25563  53.0541 292.7074 0001880  64.8228 347.9946 15.06389263    17
